{
  "norad_id": 66068,
  "name": "STARLINK-35422",
  "history": [
    {
      "epoch": "2026-03-28T21:36:10.099296",
      "apogee_km": 475.93080649794047,
      "perigee_km": 474.4436351420227,
      "latitude_deg": 32.32285635318105,
      "longitude_deg": 153.21122144022956,
      "semi_major_axis_km": 6853.324220819981,
      "eccentricity": 0.0001085,
      "inclination_deg": 53.1594,
      "raan_deg": 155.9698,
      "arg_perigee_deg": 94.6038,
      "mean_anomaly_deg": 265.5087,
      "mean_motion_rev_day": 15.30209327
    }
  ]
}